ISS (ZARYA)             
1 25544U 98067A   26045.53711076  .00007669  00000+0  14907-3 0  9998
2 25544  51.6315 186.8042 0011057  98.0666 262.1577 15.48597515552744
CSS (TIANHE)            
1 48274U 21035A   26045.54273357  .00017551  00000+0  21777-3 0  9994
2 48274  41.4682 348.8930 0004119  92.6831 267.4479 15.59606555273997
ISS (NAUKA)             
1 49044U 21066A   26045.21445063  .00008429  00000+0  16304-3 0  9997
2 49044  51.6315 188.3997 0011062  96.9141 263.3106 15.48593530230446
FREGAT DEB              
1 49271U 11037PF  26045.05338416  .00037780  00000+0  60621-1 0  9992
2 49271  51.6539  11.5209 0937788   5.1174 355.8505 12.38610800209766
CSS (WENTIAN)           
1 53239U 22085A   26045.22255719  .00017014  00000+0  21136-3 0  9997
2 53239  41.4681 350.8379 0004138  88.4317 271.6995 15.59592517173841
CSS (MENGTIAN)          
1 54216U 22143A   26045.22255719  .00017014  00000+0  21136-3 0  9998
2 54216  41.4681 350.8379 0004138  88.4317 271.6995 15.59592517158648
PROGRESS-MS 31          
1 64751U 25146A   26045.21445063  .00008429  00000+0  16304-3 0  9992
2 64751  51.6315 188.3997 0011062  96.9141 263.3106 15.48593530  6753
TIANZHOU-9              
1 64786U 25149A   26045.22255719  .00017014  00000+0  21136-3 0  9990
2 64786  41.4681 350.8379 0004138  88.4317 271.6995 15.59592517255302
DRAGON CRS-33           
1 65304U 25186A   26045.21445063  .00008429  00000+0  16304-3 0  9991
2 65304  51.6315 188.3997 0011062  96.9141 263.3106 15.48593530   112
PROGRESS-MS 32          
1 65586U 25204A   26045.21445063  .00008429  00000+0  16304-3 0  9994
2 65586  51.6315 188.3997 0011062  96.9141 263.3106 15.48593530   271
CYGNUS NG-23            
1 65616U 25208A   26045.21445063  .00008429  00000+0  16304-3 0  9992
2 65616  51.6315 188.3997 0011062  96.9141 263.3106 15.48593530   220
ISS OBJECT XK           
1 65731U 98067XK  26045.58065799  .00279451  00000+0  97384-3 0  9999
2 65731  51.6225 169.0246 0005334 324.0536  36.0109 15.88034927 23204
