CCSDS_OMM_VERS = 2.0
CREATION_DATE  = 
ORIGINATOR     = 

OBJECT_NAME    = ISS (ZARYA)
OBJECT_ID      = 1998-067A
CENTER_NAME    = EARTH
REF_FRAME      = TEME
TIME_SYSTEM    = UTC
MEAN_ELEMENT_THEORY = SGP/SGP4

EPOCH          = 2026-02-14T12:53:26.369664
MEAN_MOTION    = 15.48597515
ECCENTRICITY   = .0011057
INCLINATION    = 51.6315
RA_OF_ASC_NODE = 186.8042
ARG_OF_PERICENTER = 98.0666
MEAN_ANOMALY   = 262.1577

EPHEMERIS_TYPE = 0
CLASSIFICATION_TYPE = U
NORAD_CAT_ID   = 25544
ELEMENT_SET_NO = 999
REV_AT_EPOCH   = 55274
BSTAR          = .14907E-3
MEAN_MOTION_DOT = .7669E-4
MEAN_MOTION_DDOT = 0

CCSDS_OMM_VERS = 2.0
CREATION_DATE  = 
ORIGINATOR     = 

OBJECT_NAME    = CSS (TIANHE)
OBJECT_ID      = 2021-035A
CENTER_NAME    = EARTH
REF_FRAME      = TEME
TIME_SYSTEM    = UTC
MEAN_ELEMENT_THEORY = SGP/SGP4

EPOCH          = 2026-02-14T13:01:32.180448
MEAN_MOTION    = 15.59606555
ECCENTRICITY   = .0004119
INCLINATION    = 41.4682
RA_OF_ASC_NODE = 348.8930
ARG_OF_PERICENTER = 92.6831
MEAN_ANOMALY   = 267.4479

EPHEMERIS_TYPE = 0
CLASSIFICATION_TYPE = U
NORAD_CAT_ID   = 48274
ELEMENT_SET_NO = 999
REV_AT_EPOCH   = 27399
BSTAR          = .21777E-3
MEAN_MOTION_DOT = .17551E-3
MEAN_MOTION_DDOT = 0

CCSDS_OMM_VERS = 2.0
CREATION_DATE  = 
ORIGINATOR     = 

OBJECT_NAME    = ISS (NAUKA)
OBJECT_ID      = 2021-066A
CENTER_NAME    = EARTH
REF_FRAME      = TEME
TIME_SYSTEM    = UTC
MEAN_ELEMENT_THEORY = SGP/SGP4

EPOCH          = 2026-02-14T05:08:48.534432
MEAN_MOTION    = 15.48593530
ECCENTRICITY   = .00110623
INCLINATION    = 51.6315
RA_OF_ASC_NODE = 188.3997
ARG_OF_PERICENTER = 96.9141
MEAN_ANOMALY   = 263.3106

EPHEMERIS_TYPE = 0
CLASSIFICATION_TYPE = U
NORAD_CAT_ID   = 49044
ELEMENT_SET_NO = 999
REV_AT_EPOCH   = 23044
BSTAR          = .16303535E-3
MEAN_MOTION_DOT = .8429E-4
MEAN_MOTION_DDOT = 0

CCSDS_OMM_VERS = 2.0
CREATION_DATE  = 
ORIGINATOR     = 

OBJECT_NAME    = FREGAT DEB
OBJECT_ID      = 2011-037PF
CENTER_NAME    = EARTH
REF_FRAME      = TEME
TIME_SYSTEM    = UTC
MEAN_ELEMENT_THEORY = SGP/SGP4

EPOCH          = 2026-02-14T01:16:52.391424
MEAN_MOTION    = 12.38610800
ECCENTRICITY   = .0937788
INCLINATION    = 51.6539
RA_OF_ASC_NODE = 11.5209
ARG_OF_PERICENTER = 5.1174
MEAN_ANOMALY   = 355.8505

EPHEMERIS_TYPE = 0
CLASSIFICATION_TYPE = U
NORAD_CAT_ID   = 49271
ELEMENT_SET_NO = 999
REV_AT_EPOCH   = 20976
BSTAR          = .60621079E-1
MEAN_MOTION_DOT = .3778E-3
MEAN_MOTION_DDOT = 0

CCSDS_OMM_VERS = 2.0
CREATION_DATE  = 
ORIGINATOR     = 

OBJECT_NAME    = CSS (WENTIAN)
OBJECT_ID      = 2022-085A
CENTER_NAME    = EARTH
REF_FRAME      = TEME
TIME_SYSTEM    = UTC
MEAN_ELEMENT_THEORY = SGP/SGP4

EPOCH          = 2026-02-14T05:20:28.941216
MEAN_MOTION    = 15.59592517
ECCENTRICITY   = .00041385
INCLINATION    = 41.4681
RA_OF_ASC_NODE = 350.8379
ARG_OF_PERICENTER = 88.4317
MEAN_ANOMALY   = 271.6995

EPHEMERIS_TYPE = 0
CLASSIFICATION_TYPE = U
NORAD_CAT_ID   = 53239
ELEMENT_SET_NO = 999
REV_AT_EPOCH   = 17384
BSTAR          = .21135878E-3
MEAN_MOTION_DOT = .17014E-3
MEAN_MOTION_DDOT = 0

CCSDS_OMM_VERS = 2.0
CREATION_DATE  = 
ORIGINATOR     = 

OBJECT_NAME    = CSS (MENGTIAN)
OBJECT_ID      = 2022-143A
CENTER_NAME    = EARTH
REF_FRAME      = TEME
TIME_SYSTEM    = UTC
MEAN_ELEMENT_THEORY = SGP/SGP4

EPOCH          = 2026-02-14T05:20:28.941216
MEAN_MOTION    = 15.59592517
ECCENTRICITY   = .00041385
INCLINATION    = 41.4681
RA_OF_ASC_NODE = 350.8379
ARG_OF_PERICENTER = 88.4317
MEAN_ANOMALY   = 271.6995

EPHEMERIS_TYPE = 0
CLASSIFICATION_TYPE = U
NORAD_CAT_ID   = 54216
ELEMENT_SET_NO = 999
REV_AT_EPOCH   = 15864
BSTAR          = .21135878E-3
MEAN_MOTION_DOT = .17014E-3
MEAN_MOTION_DDOT = 0

CCSDS_OMM_VERS = 2.0
CREATION_DATE  = 
ORIGINATOR     = 

OBJECT_NAME    = PROGRESS-MS 31
OBJECT_ID      = 2025-146A
CENTER_NAME    = EARTH
REF_FRAME      = TEME
TIME_SYSTEM    = UTC
MEAN_ELEMENT_THEORY = SGP/SGP4

EPOCH          = 2026-02-14T05:08:48.534432
MEAN_MOTION    = 15.48593530
ECCENTRICITY   = .00110623
INCLINATION    = 51.6315
RA_OF_ASC_NODE = 188.3997
ARG_OF_PERICENTER = 96.9141
MEAN_ANOMALY   = 263.3106

EPHEMERIS_TYPE = 0
CLASSIFICATION_TYPE = U
NORAD_CAT_ID   = 64751
ELEMENT_SET_NO = 999
REV_AT_EPOCH   = 675
BSTAR          = .16303535E-3
MEAN_MOTION_DOT = .8429E-4
MEAN_MOTION_DDOT = 0

CCSDS_OMM_VERS = 2.0
CREATION_DATE  = 
ORIGINATOR     = 

OBJECT_NAME    = TIANZHOU-9
OBJECT_ID      = 2025-149A
CENTER_NAME    = EARTH
REF_FRAME      = TEME
TIME_SYSTEM    = UTC
MEAN_ELEMENT_THEORY = SGP/SGP4

EPOCH          = 2026-02-14T05:20:28.941216
MEAN_MOTION    = 15.59592517
ECCENTRICITY   = .00041385
INCLINATION    = 41.4681
RA_OF_ASC_NODE = 350.8379
ARG_OF_PERICENTER = 88.4317
MEAN_ANOMALY   = 271.6995

EPHEMERIS_TYPE = 0
CLASSIFICATION_TYPE = U
NORAD_CAT_ID   = 64786
ELEMENT_SET_NO = 999
REV_AT_EPOCH   = 25530
BSTAR          = .21135878E-3
MEAN_MOTION_DOT = .17014E-3
MEAN_MOTION_DDOT = 0

CCSDS_OMM_VERS = 2.0
CREATION_DATE  = 
ORIGINATOR     = 

OBJECT_NAME    = DRAGON CRS-33
OBJECT_ID      = 2025-186A
CENTER_NAME    = EARTH
REF_FRAME      = TEME
TIME_SYSTEM    = UTC
MEAN_ELEMENT_THEORY = SGP/SGP4

EPOCH          = 2026-02-14T05:08:48.534432
MEAN_MOTION    = 15.48593530
ECCENTRICITY   = .00110623
INCLINATION    = 51.6315
RA_OF_ASC_NODE = 188.3997
ARG_OF_PERICENTER = 96.9141
MEAN_ANOMALY   = 263.3106

EPHEMERIS_TYPE = 0
CLASSIFICATION_TYPE = U
NORAD_CAT_ID   = 65304
ELEMENT_SET_NO = 999
REV_AT_EPOCH   = 11
BSTAR          = .16303535E-3
MEAN_MOTION_DOT = .8429E-4
MEAN_MOTION_DDOT = 0

CCSDS_OMM_VERS = 2.0
CREATION_DATE  = 
ORIGINATOR     = 

OBJECT_NAME    = PROGRESS-MS 32
OBJECT_ID      = 2025-204A
CENTER_NAME    = EARTH
REF_FRAME      = TEME
TIME_SYSTEM    = UTC
MEAN_ELEMENT_THEORY = SGP/SGP4

EPOCH          = 2026-02-14T05:08:48.534432
MEAN_MOTION    = 15.48593530
ECCENTRICITY   = .00110623
INCLINATION    = 51.6315
RA_OF_ASC_NODE = 188.3997
ARG_OF_PERICENTER = 96.9141
MEAN_ANOMALY   = 263.3106

EPHEMERIS_TYPE = 0
CLASSIFICATION_TYPE = U
NORAD_CAT_ID   = 65586
ELEMENT_SET_NO = 999
REV_AT_EPOCH   = 27
BSTAR          = .16303535E-3
MEAN_MOTION_DOT = .8429E-4
MEAN_MOTION_DDOT = 0

CCSDS_OMM_VERS = 2.0
CREATION_DATE  = 
ORIGINATOR     = 

OBJECT_NAME    = CYGNUS NG-23
OBJECT_ID      = 2025-208A
CENTER_NAME    = EARTH
REF_FRAME      = TEME
TIME_SYSTEM    = UTC
MEAN_ELEMENT_THEORY = SGP/SGP4

EPOCH          = 2026-02-14T05:08:48.534432
MEAN_MOTION    = 15.48593530
ECCENTRICITY   = .00110623
INCLINATION    = 51.6315
RA_OF_ASC_NODE = 188.3997
ARG_OF_PERICENTER = 96.9141
MEAN_ANOMALY   = 263.3106

EPHEMERIS_TYPE = 0
CLASSIFICATION_TYPE = U
NORAD_CAT_ID   = 65616
ELEMENT_SET_NO = 999
REV_AT_EPOCH   = 22
BSTAR          = .16303535E-3
MEAN_MOTION_DOT = .8429E-4
MEAN_MOTION_DDOT = 0

CCSDS_OMM_VERS = 2.0
CREATION_DATE  = 
ORIGINATOR     = 

OBJECT_NAME    = ISS OBJECT XK
OBJECT_ID      = 1998-067XK
CENTER_NAME    = EARTH
REF_FRAME      = TEME
TIME_SYSTEM    = UTC
MEAN_ELEMENT_THEORY = SGP/SGP4

EPOCH          = 2026-02-14T13:56:08.850336
MEAN_MOTION    = 15.88034927
ECCENTRICITY   = .0005334
INCLINATION    = 51.6225
RA_OF_ASC_NODE = 169.0246
ARG_OF_PERICENTER = 324.0536
MEAN_ANOMALY   = 36.0109

EPHEMERIS_TYPE = 0
CLASSIFICATION_TYPE = U
NORAD_CAT_ID   = 65731
ELEMENT_SET_NO = 999
REV_AT_EPOCH   = 2320
BSTAR          = .97384E-3
MEAN_MOTION_DOT = .279451E-2
MEAN_MOTION_DDOT = 0

